HIMAWARI-8              
1 40267U 14060A   23351.96931017 -.00000266  00000+0  00000+0 0  9993
2 40267   0.0108  94.1324 0000901 173.1643 308.6450  1.00271714 33711
